OBJECT_NAME,OBJECT_ID,EPOCH,MEAN_MOTION,ECCENTRICITY,INCLINATION,RA_OF_ASC_NODE,ARG_OF_PERICENTER,MEAN_ANOMALY,EPHEMERIS_TYPE,CLASSIFICATION_TYPE,NORAD_CAT_ID,ELEMENT_SET_NO,REV_AT_EPOCH,BSTAR,MEAN_MOTION_DOT,MEAN_MOTION_DDOT
STARLINK-36959,2026-041W,2026-06-10T04:43:34.084128,15.34404235,.00019196,53.1595,337.9153,74.9517,285.1698,0,U,68060,999,1558,.63290797E-3,.21071E-3,0
STARLINK-36915,2026-041X,2026-06-09T18:50:29.563296,15.34393625,.0001076,53.1597,339.6035,79.1501,280.9623,0,U,68061,999,1552,.65614E-3,.21853E-3,0
STARLINK-36952,2026-041Y,2026-06-09T18:11:13.960608,15.34407381,.00014363,53.1608,340.1561,85.4247,274.6919,0,U,68062,999,1551,.37072527E-3,.12173E-3,0
STARLINK-37000,2026-041Z,2026-06-09T23:16:51.451680,15.34413560,.0001082,53.1607,339.3476,87.2087,272.9040,0,U,68063,999,1554,.86879054E-3,.29104E-3,0
STARLINK-36996,2026-041AA,2026-06-09T18:44:25.656864,15.34406823,.0001023,53.1603,339.5772,95.4503,264.6616,0,U,68064,999,1552,.71686E-3,.23927E-3,0
STARLINK-36836,2026-041AB,2026-06-10T01:39:08.975232,15.33556092,.0001778,53.1584,340.6508,104.8862,255.2337,0,U,68065,999,1553,.76123303E-3,.24751E-3,0
STARLINK-36976,2026-041AC,2026-06-09T18:56:32.997120,15.34409014,.0001121,53.1593,339.6334,84.3055,275.8076,0,U,68066,999,1552,.75489E-3,.25222E-3,0
STARLINK-36929,2026-041AD,2026-06-09T18:14:15.997632,15.34405531,.00016123,53.1607,340.1728,98.1933,261.9253,0,U,68067,999,1551,.68293791E-3,.22772E-3,0
STARLINK-36990,2026-041AE,2026-06-10T05:26:39.552288,15.34406753,.00011391,53.1605,339.5088,100.7029,259.4102,0,U,68068,999,1556,.80577321E-3,.26952E-3,0
STARLINK-36766,2026-042A,2026-06-10T03:45:14.315616,15.34386017,.00018056,53.1580,108.4236,90.4129,269.7080,0,U,68069,999,1647,.79572621E-3,.26592E-3,0
STARLINK-36823,2026-042B,2026-06-10T03:05:01.990464,15.34405341,.00012376,53.1579,106.0703,87.2135,272.9009,0,U,68070,999,1650,.10314123E-2,.34639E-3,0
STARLINK-36970,2026-042C,2026-06-10T03:27:03.676320,15.34400881,.00012403,53.1578,108.3423,87.1393,272.9752,0,U,68071,999,1647,.99177348E-3,.33282E-3,0
STARLINK-36972,2026-042D,2026-06-10T04:12:22.762080,15.34398595,.00013623,53.1581,107.8181,86.4391,273.6767,0,U,68072,999,1648,.80199093E-3,.26816E-3,0
STARLINK-37074,2026-042E,2026-06-10T02:53:42.610848,15.34432247,.00006615,53.1588,108.1916,351.6041,8.4951,0,U,68073,999,1647,.11188953E-2,.37656E-3,0
STARLINK-37045,2026-042F,2026-06-10T03:33:07.235424,15.34406279,.00012675,53.1576,108.3812,87.3515,272.7632,0,U,68074,999,1647,.92958162E-3,.31168E-3,0
STARLINK-37026,2026-042G,2026-06-10T03:42:12.638880,15.34407899,.00015011,53.1583,108.4123,86.2592,273.8582,0,U,68075,999,1647,.9272939E-3,.31092E-3,0
STARLINK-37023,2026-042H,2026-06-10T03:20:59.899488,15.34405602,.00012151,53.1584,108.3182,91.3088,268.8054,0,U,68076,999,1647,.69493282E-3,.2318E-3,0
STARLINK-37036,2026-042J,2026-06-10T03:53:31.092288,15.34408824,.00011112,53.1587,106.3087,98.0966,262.0163,0,U,68077,999,1650,.82054093E-3,.27456E-3,0
STARLINK-36973,2026-042K,2026-06-10T02:50:42.100512,15.34396933,.00010708,53.1585,108.1754,110.0186,250.0932,0,U,68078,999,1647,.87551701E-3,.29317E-3,0
STARLINK-37063,2026-042L,2026-06-10T03:11:55.685760,15.34421715,.00013072,53.1579,108.2686,98.2985,261.8166,0,U,68079,999,1647,.83604402E-3,.27996E-3,0
STARLINK-37051,2026-042M,2026-06-10T02:07:35.916096,15.34402747,.0001139,53.1577,106.5425,106.0556,254.0572,0,U,68080,999,1649,.8102439E-3,.271E-3,0
STARLINK-37066,2026-042N,2026-06-10T04:05:38.199264,15.34399936,.00012962,53.1588,106.3628,88.9011,271.2140,0,U,68081,999,1650,.73495546E-3,.24537E-3,0
STARLINK-37054,2026-042P,2026-06-10T02:56:45.587904,15.34424870,.00013928,53.1591,108.1959,80.3343,279.7817,0,U,68082,999,1647,.10892035E-2,.36633E-3,0
STARLINK-37065,2026-042Q,2026-06-10T03:36:09.015840,15.34403882,.00012842,53.1577,108.3869,79.2431,280.8716,0,U,68083,999,1647,.91140335E-3,.30546E-3,0
STARLINK-37037,2026-042R,2026-06-10T02:44:38.778144,15.34408955,.00021805,53.1590,108.1484,98.1294,261.9956,0,U,68084,999,1647,.73764685E-3,.24636E-3,0
STARLINK-37068,2026-042S,2026-06-10T03:47:27.643776,15.34399000,.00011129,53.1579,106.2715,96.9407,263.1722,0,U,68085,999,1650,.74258562E-3,.24795E-3,0
STARLINK-37067,2026-042T,2026-06-10T03:59:34.387008,15.34403018,.00012675,53.1585,106.3156,102.4932,257.6213,0,U,68086,999,1650,.60409566E-3,.20091E-3,0
STARLINK-37062,2026-042U,2026-06-10T04:03:17.142624,15.34405876,.0001228,53.1583,107.7671,97.1682,262.9460,0,U,68087,999,1648,.82153296E-3,.27488E-3,0
STARLINK-37059,2026-042V,2026-06-10T03:24:01.904544,15.34418930,.00011623,53.1580,108.3320,81.8344,278.2791,0,U,68088,999,1647,.8992809E-3,.30148E-3,0
STARLINK-37004,2026-042W,2026-06-10T02:17:30.244416,15.34397381,.00009337,53.1577,108.7526,111.2562,248.8541,0,U,68089,999,1646,.76157307E-3,.2544E-3,0
