STARLINK-36959          
1 68060U 26041W   26161.19692227  .00021071  00000+0  63291-3 0  9991
2 68060  53.1595 337.9153 0001919  74.9517 285.1698 15.34404235 15583
STARLINK-36915          
1 68061U 26041X   26160.78506439  .00021853  00000+0  65614-3 0  9994
2 68061  53.1597 339.6035 0001076  79.1501 280.9623 15.34393625 15523
STARLINK-36952          
1 68062U 26041Y   26160.75780047  .00012173  00000+0  37073-3 0  9994
2 68062  53.1608 340.1561 0001436  85.4247 274.6919 15.34407381 15517
STARLINK-37000          
1 68063U 26041Z   26160.97003995  .00029104  00000+0  86879-3 0  9999
2 68063  53.1607 339.3476 0001082  87.2087 272.9040 15.34413560 15546
STARLINK-36996          
1 68064U 26041AA  26160.78085251  .00023927  00000+0  71686-3 0  9991
2 68064  53.1603 339.5772 0001023  95.4503 264.6616 15.34406823 15522
STARLINK-36836          
1 68065U 26041AB  26161.06885388  .00024751  00000+0  76123-3 0  9990
2 68065  53.1584 340.6508 0001778 104.8862 255.2337 15.33556092 15531
STARLINK-36976          
1 68066U 26041AC  26160.78927080  .00025222  00000+0  75489-3 0  9993
2 68066  53.1593 339.6334 0001121  84.3055 275.8076 15.34409014 15524
STARLINK-36929          
1 68067U 26041AD  26160.75990738  .00022772  00000+0  68294-3 0  9994
2 68067  53.1607 340.1728 0001612  98.1933 261.9253 15.34405531 15510
STARLINK-36990          
1 68068U 26041AE  26161.22684667  .00026952  00000+0  80577-3 0  9991
2 68068  53.1605 339.5088 0001139 100.7029 259.4102 15.34406753 15567
STARLINK-36766          
1 68069U 26042A   26161.15641569  .00026592  00000+0  79573-3 0  9993
2 68069  53.1580 108.4236 0001805  90.4129 269.7080 15.34386017 16474
STARLINK-36823          
1 68070U 26042B   26161.12849526  .00034639  00000+0  10314-2 0  9993
2 68070  53.1579 106.0703 0001237  87.2135 272.9009 15.34405341 16500
STARLINK-36970          
1 68071U 26042C   26161.14379255  .00033282  00000+0  99177-3 0  9991
2 68071  53.1578 108.3423 0001240  87.1393 272.9752 15.34400881 16478
STARLINK-36972          
1 68072U 26042D   26161.17526345  .00026816  00000+0  80199-3 0  9998
2 68072  53.1581 107.8181 0001362  86.4391 273.6767 15.34398595 16486
STARLINK-37074          
1 68073U 26042E   26161.12063207  .00037656  00000+0  11189-2 0  9993
2 68073  53.1588 108.1916 0000661 351.6041   8.4951 15.34432247 16475
STARLINK-37045          
1 68074U 26042F   26161.14800041  .00031168  00000+0  92958-3 0  9997
2 68074  53.1576 108.3812 0001267  87.3515 272.7632 15.34406279 16470
STARLINK-37026          
1 68075U 26042G   26161.15431295  .00031092  00000+0  92729-3 0  9992
2 68075  53.1583 108.4123 0001501  86.2592 273.8582 15.34407899 16474
STARLINK-37023          
1 68076U 26042H   26161.13958217  .00023180  00000+0  69493-3 0  9990
2 68076  53.1584 108.3182 0001215  91.3088 268.8054 15.34405602 16477
STARLINK-37036          
1 68077U 26042J   26161.16216542  .00027456  00000+0  82054-3 0  9990
2 68077  53.1587 106.3087 0001111  98.0966 262.0163 15.34408824 16507
STARLINK-36973          
1 68078U 26042K   26161.11854283  .00029317  00000+0  87552-3 0  9992
2 68078  53.1585 108.1754 0001070 110.0186 250.0932 15.34396933 16474
STARLINK-37063          
1 68079U 26042L   26161.13328340  .00027996  00000+0  83604-3 0  9990
2 68079  53.1579 108.2686 0001307  98.2985 261.8166 15.34421715 16476
STARLINK-37051          
1 68080U 26042M   26161.08861014  .00027100  00000+0  81024-3 0  9997
2 68080  53.1577 106.5425 0001139 106.0556 254.0572 15.34402747 16494
STARLINK-37066          
1 68081U 26042N   26161.17058101  .00024537  00000+0  73496-3 0  9998
2 68081  53.1588 106.3628 0001296  88.9011 271.2140 15.34399936 16507
STARLINK-37054          
1 68082U 26042P   26161.12274986  .00036633  00000+0  10892-2 0  9995
2 68082  53.1591 108.1959 0001392  80.3343 279.7817 15.34424870 16476
STARLINK-37065          
1 68083U 26042Q   26161.15010435  .00030546  00000+0  91140-3 0  9999
2 68083  53.1577 108.3869 0001284  79.2431 280.8716 15.34403882 16479
STARLINK-37037          
1 68084U 26042R   26161.11433771  .00024636  00000+0  73765-3 0  9994
2 68084  53.1590 108.1484 0002180  98.1294 261.9956 15.34408955 16471
STARLINK-37068          
1 68085U 26042S   26161.15795884  .00024795  00000+0  74259-3 0  9990
2 68085  53.1579 106.2715 0001112  96.9407 263.1722 15.34399000 16500
STARLINK-37067          
1 68086U 26042T   26161.16637022  .00020091  00000+0  60410-3 0  9990
2 68086  53.1585 106.3156 0001267 102.4932 257.6213 15.34403018 16503
STARLINK-37062          
1 68087U 26042U   26161.16894841  .00027488  00000+0  82153-3 0  9990
2 68087  53.1583 107.7671 0001228  97.1682 262.9460 15.34405876 16482
STARLINK-37059          
1 68088U 26042V   26161.14168871  .00030148  00000+0  89928-3 0  9990
2 68088  53.1580 108.3320 0001162  81.8344 278.2791 15.34418930 16471
STARLINK-37004          
1 68089U 26042W   26161.09548894  .00025440  00000+0  76157-3 0  9991
2 68089  53.1577 108.7526 0000933 111.2562 248.8541 15.34397381 16466
